CZ-6A R/B               
1 68197U 26051B   26095.52485759  .00001315  00000+0  17820-3 0  9992
2 68197 142.0302 348.4525 0187402 244.4764 113.6482 14.56386711  3076
2026-052A               
1 68198U 26052A   26095.62911824  .00010158  00000+0  62588-3 0  9998
2 68198  97.5352 171.5495 0013726 191.5234 168.5683 15.10086258  3096
YUXING-3 06             
1 68199U 26052B   26095.62704653  .00007578  00000+0  46659-3 0  9992
2 68199  97.5353 171.5516 0012725 192.6828 167.4083 15.10212309  3091
2026-052C               
1 68200U 26052C   26095.62533609  .00006870  00000+0  42216-3 0  9995
2 68200  97.5350 171.5547 0012426 195.1356 164.9504 15.10322032  3081
2026-052D               
1 68201U 26052D   26095.62272446  .00010058  00000+0  61173-3 0  9991
2 68201  97.5355 171.5558 0011715 191.4324 168.6641 15.10583662  3095
2026-052E               
1 68202U 26052E   26095.09277573  .00015605  00000+0  94666-3 0  9995
2 68202  97.5345 171.0418 0010463 202.2983 157.7793 15.10577677  3014
2026-052F               
1 68203U 26052F   26095.61927716  .00009733  00000+0  58810-3 0  9991
2 68203  97.5351 171.5663 0010736 187.6739 172.4328 15.10840235  3096
2026-052G               
1 68204U 26052G   26095.61862859  .00009464  00000+0  57132-3 0  9995
2 68204  97.5360 171.5617 0010316 190.2684 169.8336 15.10885669  3098
KZ-11 R/B               
1 68205U 26052H   26095.60913554  .00024381  20035-5  36774-3 0  9994
2 68205  97.3395 170.1800 0543556 306.6903  48.5511 14.67714254  3009
2026-052J               
1 68206U 26052J   26095.59911646  .00080656  29281-5  11734-2 0  9990
2 68206  97.3393 170.1916 0537012 306.6796  48.6185 14.69473831  3009
STARLINK-36986          
1 68207U 26053A   26095.57328196  .00137836  00000+0  70568-3 0  9998
2 68207  97.2849 331.2051 0001495  73.8317 286.3116 15.80919682  4300
STARLINK-37009          
1 68208U 26053B   26095.63583196  .00176572  00000+0  89892-3 0  9999
2 68208  97.2848 331.2729 0002055 116.2118 243.9361 15.80939409  4317
STARLINK-36948          
1 68209U 26053C   26095.63507833  .00127632  00000+0  65442-3 0  9992
2 68209  97.2845 331.2739 0001945 100.8990 259.2497 15.80913378  4294
STARLINK-37119          
1 68210U 26053D   26095.63432623  .00063054  00000+0  32648-3 0  9997
2 68210  97.2850 331.2746 0001353  88.9804 271.1620 15.80887837  4317
STARLINK-37120          
1 68211U 26053E   26095.63357496  .00033417  00000+0  17401-3 0  9992
2 68211  97.2850 331.2758 0001318  58.3504 301.7893 15.80881630  4294
STARLINK-37117          
1 68212U 26053F   26095.63282116  .00181618  00000+0  92379-3 0  9993
2 68212  97.2836 331.2762 0001549  82.3899 277.7546 15.80946223  4314
